EUTELSAT 5 WEST A       
1 27460U 02035A   22205.24080640 -.00000043  00000+0  00000+0 0  9990
2 27460   2.4046  89.0020 0004352  29.7458 264.8478  1.00271934 73337
METEOSAT-8 (MSG-1)      
1 27509U 02040B   22205.20327049  .00000131  00000+0  00000+0 0  9990
2 27509   8.1034  50.4605 0000179 174.6743 191.2967  1.00274224 72983
INTELSAT 906 (IS-906)   
1 27513U 02041A   22205.46984772  .00000014  00000+0  00000+0 0  9996
2 27513   2.1645  90.1208 0003181  36.4394  48.8859  1.00271131 72759
HISPASAT 30W-4          
1 27528U 02044A   22205.45380286 -.00000221  00000+0  00000+0 0  9995
2 27528   2.8946  86.4493 0046626  90.5873 273.3141  0.98932375 72663
TDRS 10                 
1 27566U 02055A   22205.59988376  .00000086  00000+0  00000+0 0  9996
2 27566   8.2679  49.7628 0007319 352.6186 304.7752  1.00276626 71957
NSS-6                   
1 27603U 02057A   22205.60061358  .00000109  00000+0  00000+0 0  9990
2 27603   1.7023  91.2782 0003268  39.0878 218.6139  1.00274683 71768
NIMIQ 2                 
1 27632U 02062A   22205.60305199 -.00000069  00000+0  00000+0 0  9998
2 27632   6.0889  70.2666 0006279  82.1581 257.7729  1.00273040 29905
USA 167                 
1 27691U 03008A   22205.57748476  .00000049  00000+0  00000+0 0  9996
2 27691   8.1132  54.3906 0002185  46.7318 279.0975  1.00271467 18673
USA 169 (MILSTAR-2 4)   
1 27711U 03012A   22205.48053598 -.00000199  00000+0  00000+0 0  9995
2 27711  10.1781  40.0109 0001983 110.4216 116.8868  1.00273366 18676
GALAXY 12 (G-12)        
1 27715U 03013B   22205.57997708  .00000057  00000+0  00000+0 0  9992
2 27715   3.3615  85.2100 0001661  49.1562 247.6861  1.00272510 37810
ASIASAT 4               
1 27718U 03014A   22205.54728814 -.00000221  00000+0  00000+0 0  9997
2 27718   1.0595  93.6664 0002472  18.1005 175.0452  1.00270461 31022
HELLAS-SAT 2            
1 27811U 03020A   22205.09632743 -.00000084  00000+0  00000+0 0  9990
2 27811   3.7753  84.2279 0005615  40.2785 201.9251  1.00272344 70056
THURAYA-2               
1 27825U 03026A   22205.16160616  .00000125  00000+0  00000+0 0  9999
2 27825   6.7727  34.4922 0002562  61.2185 308.3205  1.00272634 70077
OPTUS C1                
1 27831U 03028B   22205.57271598 -.00000151  00000+0  00000+0 0  9995
2 27831   3.2913  86.0799 0005666  37.9636 180.1212  1.00272225 38789
GALAXY 23 (G-23)        
1 27854U 03034A   22205.58953616  .00000015  00000+0  00000+0 0  9994
2 27854   0.0658 259.4904 0002949 240.3302 253.7053  1.00273425 74277
USA 170                 
1 27875U 03040A   22204.95535693 -.00000277  00000+0  00000+0 0  9996
2 27875   7.4569  59.6693 0004449  86.5458  96.8877  1.00268506 18683
GALAXY 13 (HORIZONS-1)  
1 27954U 03044A   22205.58132630  .00000052  00000+0  00000+0 0  9992
2 27954   0.0074  28.9791 0002604 149.4762 206.0814  1.00263371 32291
YAMAL 202               
1 28089U 03053A   22205.41778910 -.00000081  00000+0  00000+0 0  9994
2 28089   2.7267  87.6131 0007432  27.1330 141.1943  1.00271183 68405
UFO 11 (USA 174)        
1 28117U 03057A   22205.11315709 -.00000095  00000+0  00000+0 0  9995
2 28117   7.0318  37.8828 0005718  59.8341 319.2668  1.00272216 68142
USA 176 (DSP 22)        
1 28158U 04004A   22205.01924519 -.00000223  00000+0  00000+0 0  9990
2 28158  10.1367  35.0700 0000308 232.1248 128.7593  1.00276162 18652
ABS-4 (MOBISAT-1)       
1 28184U 04007A   22205.46923733  .00000040  00000+0  00000+0 0  9994
2 28184   2.4137  88.7929 0005192  36.7680  46.4702  1.00272557 38061
EUTELSAT 7A             
1 28187U 04008A   22205.56657619  .00000105  00000+0  00000+0 0  9998
2 28187   2.2006  87.9537 0003914  38.4808 240.5650  1.00274086 67075
AMC-11 (GE-11)          
1 28252U 04017A   22205.57624087  .00000072  00000+0  00000+0 0  9998
2 28252   0.0512 289.0494 0002346 199.8171 249.8334  1.00272769 66601
INTELSAT 10-02          
1 28358U 04022A   22204.84702269 -.00000009  00000+0  00000+0 0  9990
2 28358   0.0363 254.7920 0000680 245.7381 104.9494  1.00272017 66264
ANIK F2                 
1 28378U 04027A   22205.29142062 -.00000047  00000+0  00000+0 0  9998
2 28378   0.0599 106.5883 0001876  60.7253 128.4768  1.00271304 26988
AMC-15                  
1 28446U 04041A   22205.53210192 -.00000086  00000+0  00000+0 0  9990
2 28446   0.0525 290.4119 0002607 174.3076 283.9959  1.00271620 65046
NSS-10 (AMC-12)         
1 28526U 05003A   22205.44961723 -.00000251  00000+0  00000+0 0  9995
2 28526   2.8742  86.9925 0002603  29.1182 310.4290  1.00271439 38873
XTAR-EUR                
1 28542U 05005A   22205.08126070  .00000153  00000+0  00000+0 0  9993
2 28542   0.6683  94.3790 0002801  24.8936 240.7432  1.00272336 63916
XM-3 (RHYTHM)           
1 28626U 05008A   22205.51184295 -.00000202  00000+0  00000+0 0  9996
2 28626   0.0429 215.0363 0001540 324.3889 221.9304  1.00270497 28346
INMARSAT 4-F1           
1 28628U 05009A   22205.50551175 -.00000261  00000+0  00000+0 0  9998
2 28628   3.6363  35.4398 0002608  96.4910 135.7585  1.00272572 63397
DIRECTV 8               
1 28659U 05019A   22205.59130427  .00000004  00000+0  00000+0 0  9999
2 28659   0.0182  69.4929 0002952  66.4584 260.1472  1.00271897 62794
GALAXY 28 (G-28)        
1 28702U 05022A   22205.51105814 -.00000182  00000+0  00000+0 0  9994
2 28702   0.0025  67.9931 0002060  66.9193 262.2747  1.00270611 37700
THAICOM 4               
1 28786U 05028A   22205.48088681 -.00000360  00000+0  00000+0 0  9998
2 28786   0.0233  62.3513 0001945  68.2303 104.2000  1.00269071 37982
GALAXY 14 (G-14)        
1 28790U 05030A   22205.53538705  .00000156  00000+0  00000+0 0  9991
2 28790   1.3545  91.9105 0001694  30.2942  45.6269  1.00271786 62036
ANIK F1R                
1 28868U 05036A   22205.60450944 -.00000072  00000+0  00000+0 0  9997
2 28868   0.6518  93.4881 0002727  23.3761 295.7329  1.00272269 32176
GALAXY 15 (G-15)        
1 28884U 05041A   22205.57468626  .00000082  00000+0  00000+0 0  9993
2 28884   0.0464 282.1911 0001529 205.5750 248.3806  1.00270558 61333
SYRACUSE 3A             
1 28885U 05041B   22205.53817747  .00000130  00000+0  00000+0 0  9996
2 28885   1.2130  93.0194 0002805  33.5327  56.4052  1.00269939 61473
INMARSAT 4-F2           
1 28899U 05044A   22205.17966115  .00000010  00000+0  00000+0 0  9995
2 28899   3.5275  37.7124 0002749  97.3567 295.3924  1.00272995 61245
SPACEWAY 2              
1 28903U 05046B   22205.56657628  .00000104  00000+0  00000+0 0  9996
2 28903   1.9880  87.6085 0000522 323.8620 315.8383  1.00271892 37064
METEOSAT-9 (MSG-2)      
1 28912U 05049B   22205.24493649  .00000125  00000+0  00000+0 0  9998
2 28912   6.0999  66.0761 0000664 317.8559  51.8806  1.00268112 60765
EUTELSAT 174A           
1 28924U 05052A   22205.57911042  .00000011  00000+0  00000+0 0  9997
2 28924   0.6003  92.4701 0006032  30.7873 201.4758  1.00271236 38053
ECHOSTAR 10             
1 28935U 06003A   22205.60128524 -.00000053  00000+0  00000+0 0  9992
2 28935   0.0048 249.7954 0001425 184.6236 334.1288  1.00272368 60197
SPAINSAT                
1 28945U 06007A   22205.24457640 -.00000213  00000+0  00000+0 0  9999
2 28945   0.0648 246.6720 0004015 269.6325 203.7021  1.00272659 59931
EUTELSAT HOTBIRD 13E    
1 28946U 06007B   22205.53137583  .00000090  00000+0  00000+0 0  9995
2 28946   0.0479 178.0273 0006638 329.2895 359.2025  1.00274506 60041
JCSAT-5A                
1 29045U 06010A   22205.57934661 -.00000325  00000+0  00000+0 0  9998
2 29045   0.0281 267.4719 0001661 218.8562 156.5596  1.00273722 59482
ASTRA 1KR               
1 29055U 06012A   22205.53268383  .00000122  00000+0  00000+0 0  9992
2 29055   0.0683 265.3196 0002619 261.9433 345.9313  1.00269192 31459
EWS-G1 (GOES 13)        
1 29155U 06018A   22205.46923733  .00000041  00000+0  00000+0 0  9998
2 29155   0.6896  96.7812 0004666  93.0156 342.4729  1.00274348 29104
EUTELSAT 113 WEST A     
1 29162U 06020A   22205.59795443 -.00000034  00000+0  00000+0 0  9991
2 29162   0.0052  69.1992 0003075  58.1756 277.1719  1.00272124 59199
GALAXY 16 (G-16)        
1 29236U 06023A   22205.53878182 -.00000124  00000+0  00000+0 0  9992
2 29236   0.0526 255.3028 0002712 242.8334 259.0367  1.00272307 58692
EUTELSAT HOTBIRD 13B    
1 29270U 06032A   22205.53137583  .00000089  00000+0  00000+0 0  9992
2 29270   0.0643   8.9638 0002916 112.9373  24.5924  1.00273848 33031
JCSAT-3A                
1 29272U 06033A   22205.50952204 -.00000343  00000+0  00000+0 0  9991
2 29272   0.0193  64.3103 0002200  78.2936 111.0421  1.00269299 33467
SYRACUSE 3B             
1 29273U 06033B   22205.41715911 -.00000041  00000+0  00000+0 0  9999
2 29273   0.0334 110.9812 0004548   7.9087 328.1818  1.00272304 58428
KOREASAT 5 (MUGUNGWHA 5)
1 29349U 06034A   22205.47957882 -.00000356  00000+0  00000+0 0  9994
2 29349   0.0198 140.6615 0001010   7.0364  80.1637  1.00273043 27040
DIRECTV 9S              
1 29494U 06043A   22205.53700755 -.00000110  00000+0  00000+0 0  9995
2 29494   0.0210  71.4299 0002853  60.5510 262.3838  1.00269381 37103
OPTUS D1                
1 29495U 06043B   22205.56230722 -.00000108  00000+0  00000+0 0  9998
2 29495   0.0526 268.0544 0003292 218.1614 178.4553  1.00272446 57845
XM-4 (BLUES)            
1 29520U 06049A   22205.29665265 -.00000203  00000+0  00000+0 0  9993
2 29520   0.0619 271.6889 0001702  42.7494   9.2130  1.00271613 37193
BADR-4                  
1 29526U 06051A   22205.24699763  .00000147  00000+0  00000+0 0  9993
2 29526   0.0434 333.4810 0001540 180.2210 263.1402  1.00269865 36984
WILDBLUE-1              
1 29643U 06054A   22205.60128601 -.00000046  00000+0  00000+0 0  9993
2 29643   0.0221  90.1961 0001463  29.8358 287.5330  1.00271983 39513
AMC-18                  
1 29644U 06054B   22205.51227896 -.00000213  00000+0  00000+0 0  9996
2 29644   0.0458 285.0407 0002304 201.7600 276.8050  1.00271678 57265
